{
  "norad_id": 63652,
  "name": "STARLINK-33663",
  "history": [
    {
      "epoch": "2026-03-28T19:29:15.607680Z",
      "apogee_km": 484.13378563885817,
      "perigee_km": 481.8416210979576,
      "latitude_deg": -1.4612281236256348e-05,
      "longitude_deg": 138.46888640558257,
      "height_km": 482.74286997891244,
      "semi_major_axis_km": 6861.124703368408,
      "eccentricity": 0.00016704,
      "inclination_deg": 42.9996,
      "raan_deg": 257.011,
      "arg_perigee_deg": 271.0855,
      "mean_anomaly_deg": 88.9805,
      "mean_motion_rev_day": 15.27600503
    }
  ]
}